*******************************************************************************
Ephemeris / WWW_USER Mon Jul 15 19:03:23 2024 Pasadena, USA      / Horizons    
*******************************************************************************
Target body name: (2018 RC)                       {source: JPL#21}
Center body name: Earth (399)                     {source: DE441}
Center-site name: Gemini South Obs., Cerro Pachon
*******************************************************************************
Start time      : A.D. 2018-Nov-01 23:14:00.0000 UT      
Stop  time      : A.D. 2018-Nov-02 09:38:00.0000 UT      
Step-size       : 1 minutes
*******************************************************************************
Target pole/equ : undefined
Target radii    : undefined                                                    
Center geodetic : 289.2634, -30.2406227, 2.71233  {E-lon(deg),Lat(deg),Alt(km)}
Center cylindric: 289.2634,5517.21435,-3194.81213 {E-lon(deg),Dxy(km),Dz(km)}
Center pole/equ : ITRF93                          {East-longitude positive}
Center radii    : 6378.137, 6378.137, 6356.752 km {Equator_a, b, pole_c}       
Target primary  : Sun
Vis. interferer : MOON (R_eq= 1737.400) km        {source: DE441}
Rel. light bend : Sun                             {source: DE441}
Rel. lght bnd GM: 1.3271E+11 km^3/s^2                                          
Small-body perts: Yes                             {source: SB441-N16}
Atmos refraction: NO (AIRLESS)
RA format       : HMS
Time format     : CAL 
Calendar mode   : Mixed Julian/Gregorian
RTS-only print  : NO       
EOP file        : eop.240715.p241008                                           
EOP coverage    : DATA-BASED 1962-JAN-20 TO 2024-JUL-15. PREDICTS-> 2024-OCT-07
Units conversion: 1 au= 149597870.700 km, c= 299792.458 km/s, 1 day= 86400.0 s 
Table cut-offs 1: Elevation (-90.0deg=NO ),Airmass (>38.000=NO), Daylight (YES)
Table cut-offs 2: Solar elongation (  0.0,180.0=NO ),Local Hour Angle( 0.0=NO )
Table cut-offs 3: RA/DEC angular rate (     0.0=NO )                           
*******************************************************************************
Initial IAU76/J2000 heliocentric ecliptic osculating elements (au, days, deg.):
  EPOCH=  2458369.5 ! 2018-Sep-08.00 (TDB)         Residual RMS= .84866        
   EC= .2426621660028976   QR= .647471518312811    TP= 2458473.8617576878      
   OM= 346.8893436915528   W=  145.8737085184167   IN= 1.612045057594462       
  Equivalent ICRF heliocentric cartesian coordinates (au, au/d):
   X= 9.781363708094483E-01  Y=-2.377942828764822E-01  Z=-1.040448782093900E-01
  VX= 1.501011538102481E-03 VY= 1.393070215815854E-02 VZ= 6.509326736836346E-03
Asteroid physical parameters (km, seconds, rotational period in hours):        
   GM= n.a.                RAD= n.a.               ROTPER= .16548              
   H= 24.93                G= .150                 B-V= n.a.                   
                           ALBEDO= n.a.            STYP= n.a.                  
*******************************************************************************
 Date__(UT)__HR:MN     R.A._________(ICRF)_________DEC
******************************************************
$$SOE
 2018-Nov-02 09:29 Cm  13 09 42.993442 -01 04 29.18576
 2018-Nov-02 09:30 Cm  13 09 43.016721 -01 04 29.64462
 2018-Nov-02 09:31 Cm  13 09 43.039955 -01 04 30.10349
 2018-Nov-02 09:32 Cm  13 09 43.063143 -01 04 30.56237
 2018-Nov-02 09:33 Cm  13 09 43.086286 -01 04 31.02126
 2018-Nov-02 09:34 Cm  13 09 43.109384 -01 04 31.48016
 2018-Nov-02 09:35 Cm  13 09 43.132436 -01 04 31.93907
 2018-Nov-02 09:36 Cm  13 09 43.155444 -01 04 32.39799
 2018-Nov-02 09:37 Cm  13 09 43.178406 -01 04 32.85692
 2018-Nov-02 09:38 Cm  13 09 43.201324 -01 04 33.31586
